[{"OBJECT_NAME":"STARLINK-3978","OBJECT_ID":"2022-052AP","EPOCH":"2026-03-09T19:29:35.321568","MEAN_MOTION":15.08844363,"ECCENTRICITY":0.00013055,"INCLINATION":53.2159,"RA_OF_ASC_NODE":258.5733,"ARG_OF_PERICENTER":100.3719,"MEAN_ANOMALY":259.7421,"EPHEMERIS_TYPE":0,"CLASSIFICATION_TYPE":"U","NORAD_CAT_ID":52635,"ELEMENT_SET_NO":999,"REV_AT_EPOCH":21115,"BSTAR":4.05284e-7,"MEAN_MOTION_DOT":-2.81e-6,"MEAN_MOTION_DDOT":0},{"OBJECT_NAME":"NOAA 17 DEB","OBJECT_ID":"2002-032W","EPOCH":"2026-03-09T23:34:50.358720","MEAN_MOTION":15.06684432,"ECCENTRICITY":0.0012716,"INCLINATION":98.7039,"RA_OF_ASC_NODE":76.0065,"ARG_OF_PERICENTER":104.6864,"MEAN_ANOMALY":255.577,"EPHEMERIS_TYPE":0,"CLASSIFICATION_TYPE":"U","NORAD_CAT_ID":48181,"ELEMENT_SET_NO":999,"REV_AT_EPOCH":26088,"BSTAR":0.0078736038,"MEAN_MOTION_DOT":0.00118919,"MEAN_MOTION_DDOT":0}]
